IRIDIUM 119             
1 42959U 17061E   24112.76572559  .00000198  00000+0  63768-4 0  9991
2 42959  86.4010 353.9037 0002410  86.0776 274.0695 14.34216972342091
IRIDIUM 107             
1 42960U 17061F   24112.71498324  .00000722  00000+0  25068-3 0  9998
2 42960  86.4010 353.9411 0002349  81.0483 279.0978 14.34220513342095
IRIDIUM 132             
1 42961U 17061G   24112.86085179  .00000953  00000+0  33312-3 0  9992
2 42961  86.4008 353.8649 0002312  80.3642 279.7815 14.34225424342110
IRIDIUM 136             
1 42962U 17061H   24113.17165147  .00000902  00000+0  31487-3 0  9997
2 42962  86.4009 353.7383 0002456  89.4402 270.7075 14.34217557342172
IRIDIUM 139             
1 42963U 17061J   24113.17799142  .00000375  00000+0  12684-3 0  9998
2 42963  86.4010 353.7852 0002269  78.1461 281.9989 14.34217241342187
IRIDIUM 125             
1 42964U 17061K   24112.74669762  .00000172  00000+0  54324-4 0  9998
2 42964  86.4012 354.0117 0002544  85.0996 275.0491 14.34216552342135
IRIDIUM 135             
1 43070U 17083A   24112.93013957  .00000399  00000+0  13525-3 0  9999
2 43070  86.3913 290.6028 0001713  91.9291 268.2101 14.34221691331455
IRIDIUM 138             
1 43071U 17083B   24112.88573953  .00000396  00000+0  13433-3 0  9996
2 43071  86.3902 290.3454 0002380  89.4952 270.6517 14.34222933331437
